{
  "type": "FeatureCollection",
  "features": [
    {
      "type": "Feature",
      "properties": {
        "norad_id": 30080,
        "name": "FENGYUN 1C DEB",
        "group": "fengyun-1c-debris",
        "lat": 51.70408217068443,
        "lon": 154.00391626483213,
        "alt_km": 793.7904479822928,
        "timestamp": "2025-12-08T03:50:07.270878+00:00",
        "meta_object_name": "FENGYUN 1C DEB",
        "meta_object_id": "1999-025QH",
        "meta_epoch": "2025-12-07T05:10:12.686304",
        "meta_mean_motion": 14.10812116,
        "meta_eccentricity": 0.01339252,
        "meta_inclination": 98.6977,
        "meta_ra_of_asc_node": 321.9115,
        "meta_arg_of_pericenter": 76.1697,
        "meta_mean_anomaly": 296.2101,
        "meta_ephemeris_type": 0,
        "meta_classification_type": "U",
        "meta_norad_cat_id": 30080,
        "meta_element_set_no": 999,
        "meta_rev_at_epoch": 97160,
        "meta_bstar": 0.00048506037,
        "meta_mean_motion_dot": 9.03e-06,
        "meta_mean_motion_ddot": 0,
        "tle_line1": "1 30080U 99025QH  25341.21542461  .00000903  00000+0  48506-3 0  9993",
        "tle_line2": "2 30080  98.6977 321.9115 0133925  76.1697 296.2101 14.10812116971609"
      },
      "geometry": {
        "type": "Point",
        "coordinates": [
          154.00391626483213,
          51.70408217068443
        ]
      }
    },
    {
      "type": "Feature",
      "properties": {
        "norad_id": 30081,
        "name": "FENGYUN 1C DEB",
        "group": "fengyun-1c-debris",
        "lat": 10.910348740743057,
        "lon": 160.29308129979384,
        "alt_km": 956.4897058568786,
        "timestamp": "2025-12-08T03:50:07.270888+00:00",
        "meta_object_name": "FENGYUN 1C DEB",
        "meta_object_id": "1999-025QJ",
        "meta_epoch": "2025-12-06T23:38:38.884128",
        "meta_mean_motion": 13.98265482,
        "meta_eccentricity": 0.00761248,
        "meta_inclination": 98.9222,
        "meta_ra_of_asc_node": 337.4157,
        "meta_arg_of_pericenter": 355.0655,
        "meta_mean_anomaly": 24.1491,
        "meta_ephemeris_type": 0,
        "meta_classification_type": "U",
        "meta_norad_cat_id": 30081,
        "meta_element_set_no": 999,
        "meta_rev_at_epoch": 96274,
        "meta_bstar": 0.0006740244,
        "meta_mean_motion_dot": 9.42e-06,
        "meta_mean_motion_ddot": 0,
        "tle_line1": "1 30081U 99025QJ  25340.98517227  .00000942  00000+0  67402-3 0  9998",
        "tle_line2": "2 30081  98.9222 337.4157 0076124 355.0655  24.1491 13.98265482962742"
      },
      "geometry": {
        "type": "Point",
        "coordinates": [
          160.29308129979384,
          10.910348740743057
        ]
      }
    },
    {
      "type": "Feature",
      "properties": {
        "norad_id": 30082,
        "name": "FENGYUN 1C DEB",
        "group": "fengyun-1c-debris",
        "lat": -65.49210031669705,
        "lon": -70.91422898122022,
        "alt_km": 545.9346898450522,
        "timestamp": "2025-12-08T03:50:07.270897+00:00",
        "meta_object_name": "FENGYUN 1C DEB",
        "meta_object_id": "1999-025QK",
        "meta_epoch": "2025-12-07T01:10:55.763328",
        "meta_mean_motion": 15.1470779,
        "meta_eccentricity": 0.00695079,
        "meta_inclination": 98.8182,
        "meta_ra_of_asc_node": 267.8909,
        "meta_arg_of_pericenter": 185.4389,
        "meta_mean_anomaly": 174.6092,
        "meta_ephemeris_type": 0,
        "meta_classification_type": "U",
        "meta_norad_cat_id": 30082,
        "meta_element_set_no": 999,
        "meta_rev_at_epoch": 1207,
        "meta_bstar": 0.001766041,
        "meta_mean_motion_dot": 0.00034798,
        "meta_mean_motion_ddot": 0,
        "tle_line1": "1 30082U 99025QK  25341.04925652  .00034798  00000+0  17660-2 0  9998",
        "tle_line2": "2 30082  98.8182 267.8909 0069507 185.4389 174.6092 15.14707790 12077"
      },
      "geometry": {
        "type": "Point",
        "coordinates": [
          -70.91422898122022,
          -65.49210031669705
        ]
      }
    },
    {
      "type": "Feature",
      "properties": {
        "norad_id": 30086,
        "name": "FENGYUN 1C DEB",
        "group": "fengyun-1c-debris",
        "lat": -46.19894521902997,
        "lon": -173.4813723104273,
        "alt_km": 879.1148298657236,
        "timestamp": "2025-12-08T03:50:07.270908+00:00",
        "meta_object_name": "FENGYUN 1C DEB",
        "meta_object_id": "1999-025QP",
        "meta_epoch": "2025-12-07T01:14:46.614624",
        "meta_mean_motion": 14.03816884,
        "meta_eccentricity": 0.00616979,
        "meta_inclination": 98.9103,
        "meta_ra_of_asc_node": 14.8479,
        "meta_arg_of_pericenter": 150.131,
        "meta_mean_anomaly": 240.1793,
        "meta_ephemeris_type": 0,
        "meta_classification_type": "U",
        "meta_norad_cat_id": 30086,
        "meta_element_set_no": 999,
        "meta_rev_at_epoch": 96616,
        "meta_bstar": 0.00056628645,
        "meta_mean_motion_dot": 8.64e-06,
        "meta_mean_motion_ddot": 0,
        "tle_line1": "1 30086U 99025QP  25341.05192841  .00000864  00000+0  56629-3 0  9995",
        "tle_line2": "2 30086  98.9103  14.8479 0061697 150.1310 240.1793 14.03816884966169"
      },
      "geometry": {
        "type": "Point",
        "coordinates": [
          -173.4813723104273,
          -46.19894521902997
        ]
      }
    },
    {
      "type": "Feature",
      "properties": {
        "norad_id": 30087,
        "name": "FENGYUN 1C DEB",
        "group": "fengyun-1c-debris",
        "lat": -32.92514787372167,
        "lon": 20.007860097765512,
        "alt_km": 939.8608748702,
        "timestamp": "2025-12-08T03:50:07.270918+00:00",
        "meta_object_name": "FENGYUN 1C DEB",
        "meta_object_id": "1999-025QQ",
        "meta_epoch": "2025-12-07T01:22:22.662336",
        "meta_mean_motion": 14.35685837,
        "meta_eccentricity": 0.02301567,
        "meta_inclination": 98.3808,
        "meta_ra_of_asc_node": 13.4574,
        "meta_arg_of_pericenter": 138.2786,
        "meta_mean_anomaly": 253.5787,
        "meta_ephemeris_type": 0,
        "meta_classification_type": "U",
        "meta_norad_cat_id": 30087,
        "meta_element_set_no": 999,
        "meta_rev_at_epoch": 98614,
        "meta_bstar": 0.00046789488,
        "meta_mean_motion_dot": 1.778e-05,
        "meta_mean_motion_ddot": 0,
        "tle_line1": "1 30087U 99025QQ  25341.05720674  .00001778  00000+0  46789-3 0  9998",
        "tle_line2": "2 30087  98.3808  13.4574 0230156 138.2786 253.5787 14.35685837986147"
      },
      "geometry": {
        "type": "Point",
        "coordinates": [
          20.007860097765512,
          -32.92514787372167
        ]
      }
    },
    {
      "type": "Feature",
      "properties": {
        "norad_id": 30088,
        "name": "FENGYUN 1C DEB",
        "group": "fengyun-1c-debris",
        "lat": -39.949920726946445,
        "lon": 139.50761511966542,
        "alt_km": 668.8343901958342,
        "timestamp": "2025-12-08T03:50:07.270928+00:00",
        "meta_object_name": "FENGYUN 1C DEB",
        "meta_object_id": "1999-025QR",
        "meta_epoch": "2025-12-06T22:37:28.958592",
        "meta_mean_motion": 14.35885424,
        "meta_eccentricity": 0.02008092,
        "meta_inclination": 98.3535,
        "meta_ra_of_asc_node": 325.3969,
        "meta_arg_of_pericenter": 264.9079,
        "meta_mean_anomaly": 149.1057,
        "meta_ephemeris_type": 0,
        "meta_classification_type": "U",
        "meta_norad_cat_id": 30088,
        "meta_element_set_no": 999,
        "meta_rev_at_epoch": 98589,
        "meta_bstar": 0.00070181283,
        "meta_mean_motion_dot": 2.509e-05,
        "meta_mean_motion_ddot": 0,
        "tle_line1": "1 30088U 99025QR  25340.94269628  .00002509  00000+0  70181-3 0  9999",
        "tle_line2": "2 30088  98.3535 325.3969 0200809 264.9079 149.1057 14.35885424985897"
      },
      "geometry": {
        "type": "Point",
        "coordinates": [
          139.50761511966542,
          -39.949920726946445
        ]
      }
    },
    {
      "type": "Feature",
      "properties": {
        "norad_id": 30089,
        "name": "FENGYUN 1C DEB",
        "group": "fengyun-1c-debris",
        "lat": -13.550543527368378,
        "lon": -110.38809861461378,
        "alt_km": 823.4462084853358,
        "timestamp": "2025-12-08T03:50:07.270938+00:00",
        "meta_object_name": "FENGYUN 1C DEB",
        "meta_object_id": "1999-025QS",
        "meta_epoch": "2025-12-07T05:06:56.172960",
        "meta_mean_motion": 14.3029394,
        "meta_eccentricity": 0.00730954,
        "meta_inclination": 98.903,
        "meta_ra_of_asc_node": 246.4785,
        "meta_arg_of_pericenter": 226.2524,
        "meta_mean_anomaly": 287.8061,
        "meta_ephemeris_type": 0,
        "meta_classification_type": "U",
        "meta_norad_cat_id": 30089,
        "meta_element_set_no": 999,
        "meta_rev_at_epoch": 98400,
        "meta_bstar": 0.00043228758,
        "meta_mean_motion_dot": 1.108e-05,
        "meta_mean_motion_ddot": 0,
        "tle_line1": "1 30089U 99025QS  25341.21315015  .00001108  00000+0  43229-3 0  9990",
        "tle_line2": "2 30089  98.9030 246.4785 0073095 226.2524 287.8061 14.30293940984002"
      },
      "geometry": {
        "type": "Point",
        "coordinates": [
          -110.38809861461378,
          -13.550543527368378
        ]
      }
    }
  ]
}